STARLINK-5426
1 54802U 22175AW  26200.18600130 -.00000274  00000+0  78204-6 0  9995
2 54802  53.1842 118.5233 0001696  87.9328 272.1858 15.08017330200548
STARLINK-3779
1 52281U 22041W   26199.82775129  .00000052  00000+0  21359-4 0  9995
2 52281  53.1595 240.1337 0001061  84.6605 275.4508 15.08828783234162
STARLINK-3136
1 49443U 21104AM  26199.65882806  .00003874  00000+0  24154-3 0  9992
2 49443  53.2160 340.1653 0001344 136.8834 223.2265 15.11768546258708
STARLINK-4104
1 53163U 22083AH  26199.99285665  .00002710  00000+0  18825-3 0  9996
2 53163  53.1609 294.5353 0000898 192.1233 167.9737 15.08846479221187
STARLINK-3825
1 52478U 22049AD  26200.25007253  .00087908  00000+0  53656-2 0  9995
2 52478  53.1596 188.2217 0001061  69.9161 290.1945 15.09565717233358
STARLINK-5264
1 54206U 22141BB  26200.25002315  .00026604  00000+0  15497-2 0  9990
2 54206  53.1592  88.0291 0000268 103.7490 225.5523 15.11848353  5796
STARLINK-5129
1 54004U 22125AS  26199.69012968 -.00000173  00000+0  72341-5 0  9996
2 54004  53.1612 345.4411 0001413  63.4569 296.6567 15.08832246209244
STARLINK-4074
1 52678U 22053Y   26200.19710174  .00000328  00000+0  38692-4 0  9994
2 52678  53.1596 273.5839 0001268  83.4778 276.6358 15.08835026231023
STARLINK-4262
1 53015U 22076AF  26200.23943645  .00001408  00000+0  10665-3 0  9990
2 53015  53.1620 213.2813 0001557  37.7704 322.3397 15.08801030222842
STARLINK-4396
1 53637U 22104BB  26200.11710452 -.00000062  00000+0  14206-4 0  9999
2 53637  53.1624 354.0195 0001336  90.1969 269.9175 15.08834892216063
